[{"OBJECT_NAME":"STARLINK-31704","OBJECT_ID":"2024-076Y","EPOCH":"2026-03-09T22:00:01.999584","MEAN_MOTION":15.30892355,"ECCENTRICITY":0.00079744,"INCLINATION":42.9978,"RA_OF_ASC_NODE":323.2923,"ARG_OF_PERICENTER":240.5046,"MEAN_ANOMALY":200.4144,"EPHEMERIS_TYPE":0,"CLASSIFICATION_TYPE":"U","NORAD_CAT_ID":59586,"ELEMENT_SET_NO":999,"REV_AT_EPOCH":581,"BSTAR":0.0024766131,"MEAN_MOTION_DOT":0.00076042,"MEAN_MOTION_DDOT":0},{"OBJECT_NAME":"STARLINK-35750","OBJECT_ID":"2025-244D","EPOCH":"2026-03-09T18:10:47.607744","MEAN_MOTION":15.30194327,"ECCENTRICITY":0.00010834,"INCLINATION":53.1591,"RA_OF_ASC_NODE":229.3372,"ARG_OF_PERICENTER":80.4062,"MEAN_ANOMALY":279.7061,"EPHEMERIS_TYPE":0,"CLASSIFICATION_TYPE":"U","NORAD_CAT_ID":66209,"ELEMENT_SET_NO":999,"REV_AT_EPOCH":2167,"BSTAR":0.00095626258,"MEAN_MOTION_DOT":0.00028065,"MEAN_MOTION_DDOT":0}]
